[{"OBJECT_NAME":"ONEWEB-0311","OBJECT_ID":"2021-075Y","EPOCH":"2026-03-09T22:09:21.339360","MEAN_MOTION":13.17651599,"ECCENTRICITY":0.00016774,"INCLINATION":87.9159,"RA_OF_ASC_NODE":25.5677,"ARG_OF_PERICENTER":66.8104,"MEAN_ANOMALY":293.3204,"EPHEMERIS_TYPE":0,"CLASSIFICATION_TYPE":"U","NORAD_CAT_ID":49097,"ELEMENT_SET_NO":999,"REV_AT_EPOCH":22055,"BSTAR":8.0061136e-5,"MEAN_MOTION_DOT":4.4e-7,"MEAN_MOTION_DDOT":0},{"OBJECT_NAME":"SL-14 DEB","OBJECT_ID":"1991-056D","EPOCH":"2026-03-09T21:32:18.039264","MEAN_MOTION":13.1413297,"ECCENTRICITY":0.00159596,"INCLINATION":82.5663,"RA_OF_ASC_NODE":219.976,"ARG_OF_PERICENTER":150.8705,"MEAN_ANOMALY":209.3309,"EPHEMERIS_TYPE":0,"CLASSIFICATION_TYPE":"U","NORAD_CAT_ID":45267,"ELEMENT_SET_NO":999,"REV_AT_EPOCH":29118,"BSTAR":-0.00084230434,"MEAN_MOTION_DOT":-2.98e-6,"MEAN_MOTION_DDOT":0}]
